OBJECT_NAME,OBJECT_ID,EPOCH,MEAN_MOTION,ECCENTRICITY,INCLINATION,RA_OF_ASC_NODE,ARG_OF_PERICENTER,MEAN_ANOMALY,EPHEMERIS_TYPE,CLASSIFICATION_TYPE,NORAD_CAT_ID,ELEMENT_SET_NO,REV_AT_EPOCH,BSTAR,MEAN_MOTION_DOT,MEAN_MOTION_DDOT
NETSAT-1,2020-068W,2026-06-05T18:56:13.646112,15.34361285,.000624,97.8752,156.8129,63.7765,296.4118,0,U,46506,999,31355,.43982966E-3,.14567E-3,0
NETSAT-2,2020-068X,2026-06-05T12:18:07.853760,15.45478514,.00049625,97.8622,163.6717,58.5352,301.6380,0,U,46507,999,31393,.50165882E-3,.23994E-3,0
GREENCUBE (IO-117),2022-080E,2026-06-01T11:09:37.753056,6.42583280,.00088692,70.1435,303.7143,293.3663,66.6064,0,U,53109,999,9105,0,-.3E-7,0
SITRO-AIS 5 (KATYS),2023-091L,2026-06-05T22:43:26.442048,15.29191227,.0012582,97.5060,220.7415,138.3399,221.8801,0,U,57176,999,16262,.58339E-3,.16506E-3,0
SITRO-AIS 6 (CHIRKIN),2023-091AC,2026-06-05T21:36:01.374624,15.25715354,.0012841,97.5068,219.8726,141.3683,218.8476,0,U,57192,999,16256,.53147E-3,.13518E-3,0
SITRO-AIS 8 (ANOKHIN),2023-091AD,2026-06-05T22:01:56.201376,15.31824198,.0011782,97.5056,222.2555,134.5652,225.6553,0,U,57193,999,16272,.63196E-3,.19407E-3,0
SITRO-AIS 7 (FARTUSHNIY),2023-091AE,2026-06-05T21:37:15.479040,15.25409206,.0012661,97.5066,219.7043,142.2534,217.9594,0,U,57194,999,16255,.53502E-3,.13483E-3,0
SITRO-AIS 10 (BURDAEV),2023-091AK,2026-06-05T22:21:20.412000,15.38173139,.0007983,97.5080,227.2085,113.0132,247.1955,0,U,57199,999,16303,.75868E-3,.28535E-3,0
SITRO-AIS 9 (SHCHUKIN),2023-091AM,2026-06-05T22:54:16.822368,15.37699627,.0008181,97.5078,226.9707,113.4471,246.7634,0,U,57201,999,16302,.75286E-3,.27883E-3,0
SITRO-AIS 12 (SMIRENNIY),2023-091AQ,2026-06-05T22:43:49.539360,15.37987942,.0007862,97.5092,227.4235,108.3438,251.8662,0,U,57204,999,16304,.73589E-3,.27505E-3,0
SITRO-AIS 11 (SHEFFER),2023-091AU,2026-06-05T21:33:54.262944,15.38400454,.0007728,97.5089,227.6131,108.4906,251.7179,0,U,57208,999,16305,.74827E-3,.28348E-3,0
SITRO-AIS 25,2024-039R,2026-06-06T04:29:33.674784,14.93452119,.0144956,95.3907,227.5338,7.3724,352.9585,0,U,59066,999,12308,.34589E-3,.4438E-4,0
SITRO-AIS 26,2024-039S,2026-06-06T04:29:22.979328,14.93249057,.0145293,95.3907,227.4337,7.9396,352.4080,0,U,59067,999,12307,.34623E-3,.4422E-4,0
SITRO-AIS 27,2024-039T,2026-06-06T05:27:26.084736,14.93669716,.0144348,95.3913,227.7280,6.5081,353.7974,0,U,59068,999,12310,.3105E-3,.3997E-4,0
SITRO-AIS 28,2024-039U,2026-06-06T04:55:18.784128,14.93702574,.0144177,95.3912,227.7593,6.4225,353.8803,0,U,59071,999,12310,.35515E-3,.4579E-4,0
GRBBETA,2024-128C,2026-06-05T20:53:56.730336,15.06558818,.0042126,61.9900,255.9673,132.3228,228.1447,0,U,60237,999,10456,.37239E-3,.5433E-4,0
OOV-CUBE (TUBSAT-30),2024-128F,2026-06-05T21:02:31.047936,15.02723262,.0046035,61.9953,265.0104,131.2422,229.2650,0,U,60240,999,10441,.24502E-3,.315E-4,0
ROBUSTA-3A (MEDITERRANEE),2024-128J,2026-06-05T22:55:56.519328,15.11532916,.0042901,61.9861,247.9591,125.6652,234.8449,0,U,60243,999,10472,.63937E-3,.10927E-3,0
LASARSAT,2024-247Q,2026-06-03T22:10:16.072896,15.45494859,.00080478,44.9754,336.7002,258.6055,101.3931,0,U,62391,999,8126,.75515127E-3,.36882E-3,0
CROCUBE,2024-247T,2026-06-05T19:25:43.392864,15.47421048,.000805,44.9728,323.6298,271.6153,88.3815,0,U,62394,999,8158,.94487969E-3,.49521E-3,0
FORESAIL-1 PRIME,2025-276DS,2026-06-05T11:10:45.406848,15.18591217,.00035864,97.4201,229.9519,127.4958,232.6603,0,U,66778,999,2862,.24747125E-3,.5051E-4,0
KNACKSAT-2,1998-067XZ,2026-06-05T02:39:22.539456,15.58840087,.00107425,51.6316,355.1703,163.6532,196.4809,0,U,67683,999,1839,.6916844E-3,.54547E-3,0
